[{"OBJECT_NAME":"METEOR-M2 2","OBJECT_ID":"2019-038A","EPOCH":"2026-03-09T21:58:24.397824","MEAN_MOTION":14.24334247,"ECCENTRICITY":8.489e-5,"INCLINATION":98.9094,"RA_OF_ASC_NODE":54.7702,"ARG_OF_PERICENTER":2.4629,"MEAN_ANOMALY":357.6553,"EPHEMERIS_TYPE":0,"CLASSIFICATION_TYPE":"U","NORAD_CAT_ID":44387,"ELEMENT_SET_NO":999,"REV_AT_EPOCH":34716,"BSTAR":6.6455794e-5,"MEAN_MOTION_DOT":1.08e-6,"MEAN_MOTION_DDOT":0},{"OBJECT_NAME":"NOAA 17 DEB","OBJECT_ID":"2002-032BX","EPOCH":"2026-03-08T17:01:20.831232","MEAN_MOTION":14.20181644,"ECCENTRICITY":0.00954327,"INCLINATION":98.733,"RA_OF_ASC_NODE":348.3096,"ARG_OF_PERICENTER":18.9163,"MEAN_ANOMALY":341.552,"EPHEMERIS_TYPE":0,"CLASSIFICATION_TYPE":"U","NORAD_CAT_ID":48738,"ELEMENT_SET_NO":999,"REV_AT_EPOCH":25532,"BSTAR":0.0024000096,"MEAN_MOTION_DOT":5.321e-5,"MEAN_MOTION_DDOT":0}]
